ONEWEB-0229             
1 48779U 21045N   25353.26222426 -.00000024  00000+0 -96571-4 0  9990
2 48779  87.8996 295.0868 0001976  76.7440 283.3911 13.15550040220750
ONEWEB-0228             
1 48780U 21045P   25353.21958652  .00000294  00000+0  74719-3 0  9990
2 48780  87.9007 295.0804 0001889  75.0538 285.0801 13.15548955220668
ONEWEB-0232             
1 48781U 21045Q   25353.27015871  .00000080  00000+0  17884-3 0  9997
2 48781  87.9015 295.0627 0001862  75.4021 284.7316 13.15548750220999
ONEWEB-0231             
1 48782U 21045R   25353.24796857 -.00000067  00000+0 -21238-3 0  9990
2 48782  87.8999 295.1089 0002049  71.5938 288.5415 13.15550332220682
ONEWEB-0234             
1 48783U 21045S   25353.28586019  .00000182  00000+0  44866-3 0  9990
2 48783  87.8998 295.0755 0000961  75.2370 284.8867 13.15548997220823
ONEWEB-0238             
1 48784U 21045T   25353.28613890  .00000149  00000+0  36201-3 0  9996
2 48784  87.9001 295.0684 0001354  79.1872 280.9411 13.15547539220720
ONEWEB-0240             
1 48785U 21045U   25353.23131421  .00000093  00000+0  21214-3 0  9993
2 48785  87.9014 295.0757 0001778  66.2568 293.8749 13.15551430220749
ONEWEB-0246             
1 48786U 21045V   25353.22577091  .00000100  00000+0  23079-3 0  9990
2 48786  87.9010 295.0867 0001975  76.9130 283.2220 13.15550920220616
